[
  {
    "OBJECT_NAME": "STARLINK-2237",
    "OBJECT_ID": "21041AG",
    "EPOCH": "2025-11-11T06:24:25.884000",
    "MEAN_MOTION": 15.06397635,
    "ECCENTRICITY": 0.0001499,
    "INCLINATION": 53.0536,
    "RA_OF_ASC_NODE": 313.2364,
    "ARG_OF_PERICENTER": 98.8379,
    "MEAN_ANOMALY": 261.2779,
    "EPHEMERIS_TYPE": 0,
    "CLASSIFICATION_TYPE": "U",
    "NORAD_CAT_ID": 48583,
    "ELEMENT_SET_NO": 999,
    "REV_AT_EPOCH": 24721,
    "BSTAR": 0.00013675000000000002,
    "MEAN_MOTION_DOT": 1.756e-05,
    "MEAN_MOTION_DDOT": 0.0,
    "TLE_LINE1": "1 48583U 21041AG  25315.26696625  .00001756  00000+0  13675-3 0  9997",
    "TLE_LINE2": "2 48583  53.0536 313.2364 0001499  98.8379 261.2779 15.06397635247216",
    "COMMENT": "Grouped by shell and plane from TLE"
  },
  {
    "OBJECT_NAME": "STARLINK-2238",
    "OBJECT_ID": "21041AH",
    "EPOCH": "2025-11-11T07:22:49.160352",
    "MEAN_MOTION": 15.06400935,
    "ECCENTRICITY": 0.0001543,
    "INCLINATION": 53.0553,
    "RA_OF_ASC_NODE": 313.0555,
    "ARG_OF_PERICENTER": 90.5998,
    "MEAN_ANOMALY": 269.5168,
    "EPHEMERIS_TYPE": 0,
    "CLASSIFICATION_TYPE": "U",
    "NORAD_CAT_ID": 48584,
    "ELEMENT_SET_NO": 999,
    "REV_AT_EPOCH": 24721,
    "BSTAR": 0.0007040600000000001,
    "MEAN_MOTION_DOT": 0.00010221,
    "MEAN_MOTION_DDOT": 0.0,
    "TLE_LINE1": "1 48584U 21041AH  25315.30751343  .00010221  00000+0  70406-3 0  9994",
    "TLE_LINE2": "2 48584  53.0553 313.0555 0001543  90.5998 269.5168 15.06400935247213",
    "COMMENT": "Grouped by shell and plane from TLE"
  },
  {
    "OBJECT_NAME": "STARLINK-2241",
    "OBJECT_ID": "21041AK",
    "EPOCH": "2025-11-11T05:52:35.116896",
    "MEAN_MOTION": 15.06397921,
    "ECCENTRICITY": 0.0001366,
    "INCLINATION": 53.0547,
    "RA_OF_ASC_NODE": 313.3354,
    "ARG_OF_PERICENTER": 85.983,
    "MEAN_ANOMALY": 274.1315,
    "EPHEMERIS_TYPE": 0,
    "CLASSIFICATION_TYPE": "U",
    "NORAD_CAT_ID": 48586,
    "ELEMENT_SET_NO": 999,
    "REV_AT_EPOCH": 24720,
    "BSTAR": 0.00011522000000000001,
    "MEAN_MOTION_DOT": 1.435e-05,
    "MEAN_MOTION_DDOT": 0.0,
    "TLE_LINE1": "1 48586U 21041AK  25315.24485089  .00001435  00000+0  11522-3 0  9991",
    "TLE_LINE2": "2 48586  53.0547 313.3354 0001366  85.9830 274.1315 15.06397921247209",
    "COMMENT": "Grouped by shell and plane from TLE"
  },
  {
    "OBJECT_NAME": "STARLINK-2249",
    "OBJECT_ID": "21041AR",
    "EPOCH": "2025-11-11T07:17:33.066816",
    "MEAN_MOTION": 15.06390931,
    "ECCENTRICITY": 0.0001461,
    "INCLINATION": 53.055,
    "RA_OF_ASC_NODE": 313.3052,
    "ARG_OF_PERICENTER": 92.4889,
    "MEAN_ANOMALY": 267.6267,
    "EPHEMERIS_TYPE": 0,
    "CLASSIFICATION_TYPE": "U",
    "NORAD_CAT_ID": 48592,
    "ELEMENT_SET_NO": 999,
    "REV_AT_EPOCH": 24721,
    "BSTAR": 6.3677e-05,
    "MEAN_MOTION_DOT": 6.67e-06,
    "MEAN_MOTION_DDOT": 0.0,
    "TLE_LINE1": "1 48592U 21041AR  25315.30385494  .00000667  00000+0  63677-4 0  9999",
    "TLE_LINE2": "2 48592  53.0550 313.3052 0001461  92.4889 267.6267 15.06390931247216",
    "COMMENT": "Grouped by shell and plane from TLE"
  },
  {
    "OBJECT_NAME": "STARLINK-2250",
    "OBJECT_ID": "21041AS",
    "EPOCH": "2025-11-11T06:56:16.653696",
    "MEAN_MOTION": 15.0639726,
    "ECCENTRICITY": 0.0001391,
    "INCLINATION": 53.0564,
    "RA_OF_ASC_NODE": 313.1372,
    "ARG_OF_PERICENTER": 94.4229,
    "MEAN_ANOMALY": 265.6919,
    "EPHEMERIS_TYPE": 0,
    "CLASSIFICATION_TYPE": "U",
    "NORAD_CAT_ID": 48593,
    "ELEMENT_SET_NO": 999,
    "REV_AT_EPOCH": 24721,
    "BSTAR": 1.6017000000000003e-05,
    "MEAN_MOTION_DOT": -4.3e-07,
    "MEAN_MOTION_DDOT": 0.0,
    "TLE_LINE1": "1 48593U 21041AS  25315.28908164 -.00000043  00000+0  16017-4 0  9997",
    "TLE_LINE2": "2 48593  53.0564 313.1372 0001391  94.4229 265.6919 15.06397260247211",
    "COMMENT": "Grouped by shell and plane from TLE"
  },
  {
    "OBJECT_NAME": "STARLINK-2252",
    "OBJECT_ID": "21041AU",
    "EPOCH": "2025-11-11T06:29:43.459296",
    "MEAN_MOTION": 15.06408133,
    "ECCENTRICITY": 0.000173,
    "INCLINATION": 53.0551,
    "RA_OF_ASC_NODE": 313.2233,
    "ARG_OF_PERICENTER": 98.2178,
    "MEAN_ANOMALY": 261.9007,
    "EPHEMERIS_TYPE": 0,
    "CLASSIFICATION_TYPE": "U",
    "NORAD_CAT_ID": 48595,
    "ELEMENT_SET_NO": 999,
    "REV_AT_EPOCH": 24848,
    "BSTAR": 1.8361e-05,
    "MEAN_MOTION_DOT": -8e-08,
    "MEAN_MOTION_DDOT": 0.0,
    "TLE_LINE1": "1 48595U 21041AU  25315.27064189 -.00000008  00000+0  18361-4 0  9993",
    "TLE_LINE2": "2 48595  53.0551 313.2233 0001730  98.2178 261.9007 15.06408133248487",
    "COMMENT": "Grouped by shell and plane from TLE"
  },
  {
    "OBJECT_NAME": "STARLINK-2253",
    "OBJECT_ID": "21041AV",
    "EPOCH": "2025-11-11T07:01:36.404544",
    "MEAN_MOTION": 15.06415758,
    "ECCENTRICITY": 0.0001332,
    "INCLINATION": 53.0552,
    "RA_OF_ASC_NODE": 313.1223,
    "ARG_OF_PERICENTER": 85.6754,
    "MEAN_ANOMALY": 274.4387,
    "EPHEMERIS_TYPE": 0,
    "CLASSIFICATION_TYPE": "U",
    "NORAD_CAT_ID": 48596,
    "ELEMENT_SET_NO": 999,
    "REV_AT_EPOCH": 24767,
    "BSTAR": 0.0007790700000000001,
    "MEAN_MOTION_DOT": 0.00011347,
    "MEAN_MOTION_DDOT": 0.0,
    "TLE_LINE1": "1 48596U 21041AV  25315.29278246  .00011347  00000+0  77907-3 0  9994",
    "TLE_LINE2": "2 48596  53.0552 313.1223 0001332  85.6754 274.4387 15.06415758247676",
    "COMMENT": "Grouped by shell and plane from TLE"
  },
  {
    "OBJECT_NAME": "STARLINK-2255",
    "OBJECT_ID": "21041AW",
    "EPOCH": "2025-11-11T07:12:11.913696",
    "MEAN_MOTION": 15.06390425,
    "ECCENTRICITY": 0.0001422,
    "INCLINATION": 53.0556,
    "RA_OF_ASC_NODE": 313.0921,
    "ARG_OF_PERICENTER": 97.8431,
    "MEAN_ANOMALY": 262.272,
    "EPHEMERIS_TYPE": 0,
    "CLASSIFICATION_TYPE": "U",
    "NORAD_CAT_ID": 48597,
    "ELEMENT_SET_NO": 999,
    "REV_AT_EPOCH": 24848,
    "BSTAR": 3.6400000000000004e-05,
    "MEAN_MOTION_DOT": 2.61e-06,
    "MEAN_MOTION_DDOT": 0.0,
    "TLE_LINE1": "1 48597U 21041AW  25315.30013789  .00000261  00000+0  36400-4 0  9993",
    "TLE_LINE2": "2 48597  53.0556 313.0921 0001422  97.8431 262.2720 15.06390425248481",
    "COMMENT": "Grouped by shell and plane from TLE"
  },
  {
    "OBJECT_NAME": "STARLINK-2757",
    "OBJECT_ID": "21041BD",
    "EPOCH": "2025-11-11T06:40:21.456768",
    "MEAN_MOTION": 15.06395756,
    "ECCENTRICITY": 0.0001399,
    "INCLINATION": 53.0552,
    "RA_OF_ASC_NODE": 313.1885,
    "ARG_OF_PERICENTER": 87.7413,
    "MEAN_ANOMALY": 272.3736,
    "EPHEMERIS_TYPE": 0,
    "CLASSIFICATION_TYPE": "U",
    "NORAD_CAT_ID": 48604,
    "ELEMENT_SET_NO": 999,
    "REV_AT_EPOCH": 24848,
    "BSTAR": 0.00024389,
    "MEAN_MOTION_DOT": 3.353e-05,
    "MEAN_MOTION_DDOT": 0.0,
    "TLE_LINE1": "1 48604U 21041BD  25315.27802612  .00003353  00000+0  24389-3 0  9996",
    "TLE_LINE2": "2 48604  53.0552 313.1885 0001399  87.7413 272.3736 15.06395756248488",
    "COMMENT": "Grouped by shell and plane from TLE"
  },
  {
    "OBJECT_NAME": "STARLINK-3209",
    "OBJECT_ID": "21115AE",
    "EPOCH": "2025-11-11T07:20:38.296320",
    "MEAN_MOTION": 15.08837086,
    "ECCENTRICITY": 0.00015,
    "INCLINATION": 53.2193,
    "RA_OF_ASC_NODE": 310.5766,
    "ARG_OF_PERICENTER": 91.5747,
    "MEAN_ANOMALY": 268.5417,
    "EPHEMERIS_TYPE": 0,
    "CLASSIFICATION_TYPE": "U",
    "NORAD_CAT_ID": 49752,
    "ELEMENT_SET_NO": 999,
    "REV_AT_EPOCH": 21780,
    "BSTAR": 5.1695000000000006e-05,
    "MEAN_MOTION_DOT": 5.35e-06,
    "MEAN_MOTION_DDOT": 0.0,
    "TLE_LINE1": "1 49752U 21115AE  25315.30599880  .00000535  00000+0  51695-4 0  9997",
    "TLE_LINE2": "2 49752  53.2193 310.5766 0001500  91.5747 268.5417 15.08837086217806",
    "COMMENT": "Grouped by shell and plane from TLE"
  },
  {
    "OBJECT_NAME": "STARLINK-3193",
    "OBJECT_ID": "21115AG",
    "EPOCH": "2025-11-11T07:24:35.533440",
    "MEAN_MOTION": 15.08834347,
    "ECCENTRICITY": 0.000139,
    "INCLINATION": 53.2179,
    "RA_OF_ASC_NODE": 310.6594,
    "ARG_OF_PERICENTER": 95.2135,
    "MEAN_ANOMALY": 264.9016,
    "EPHEMERIS_TYPE": 0,
    "CLASSIFICATION_TYPE": "U",
    "NORAD_CAT_ID": 49754,
    "ELEMENT_SET_NO": 999,
    "REV_AT_EPOCH": 21780,
    "BSTAR": 4.2822000000000004e-05,
    "MEAN_MOTION_DOT": 3.94e-06,
    "MEAN_MOTION_DDOT": 0.0,
    "TLE_LINE1": "1 49754U 21115AG  25315.30874460  .00000394  00000+0  42822-4 0  9994",
    "TLE_LINE2": "2 49754  53.2179 310.6594 0001390  95.2135 264.9016 15.08834347217803",
    "COMMENT": "Grouped by shell and plane from TLE"
  },
  {
    "OBJECT_NAME": "STARLINK-3207",
    "OBJECT_ID": "21115AJ",
    "EPOCH": "2025-11-11T05:59:47.862528",
    "MEAN_MOTION": 15.08814252,
    "ECCENTRICITY": 0.0001507,
    "INCLINATION": 53.217,
    "RA_OF_ASC_NODE": 310.8157,
    "ARG_OF_PERICENTER": 91.4688,
    "MEAN_ANOMALY": 268.6477,
    "EPHEMERIS_TYPE": 0,
    "CLASSIFICATION_TYPE": "U",
    "NORAD_CAT_ID": 49756,
    "ELEMENT_SET_NO": 999,
    "REV_AT_EPOCH": 21779,
    "BSTAR": 0.00025219,
    "MEAN_MOTION_DOT": 3.725e-05,
    "MEAN_MOTION_DDOT": 0.0,
    "TLE_LINE1": "1 49756U 21115AJ  25315.24985952  .00003725  00000+0  25219-3 0  9999",
    "TLE_LINE2": "2 49756  53.2170 310.8157 0001507  91.4688 268.6477 15.08814252217797",
    "COMMENT": "Grouped by shell and plane from TLE"
  },
  {
    "OBJECT_NAME": "STARLINK-3197",
    "OBJECT_ID": "21115AK",
    "EPOCH": "2025-11-11T05:50:32.974944",
    "MEAN_MOTION": 15.08838968,
    "ECCENTRICITY": 0.0001414,
    "INCLINATION": 53.2176,
    "RA_OF_ASC_NODE": 310.8571,
    "ARG_OF_PERICENTER": 91.2922,
    "MEAN_ANOMALY": 268.8232,
    "EPHEMERIS_TYPE": 0,
    "CLASSIFICATION_TYPE": "U",
    "NORAD_CAT_ID": 49757,
    "ELEMENT_SET_NO": 999,
    "REV_AT_EPOCH": 21779,
    "BSTAR": 7.756100000000001e-05,
    "MEAN_MOTION_DOT": 9.47e-06,
    "MEAN_MOTION_DDOT": 0.0,
    "TLE_LINE1": "1 49757U 21115AK  25315.24343721  .00000947  00000+0  77561-4 0  9993",
    "TLE_LINE2": "2 49757  53.2176 310.8571 0001414  91.2922 268.8232 15.08838968217791",
    "COMMENT": "Grouped by shell and plane from TLE"
  }
]